{
    "links": {
        "self": "http://www.neowsapp.com/rest/v1/neo/3797675?api_key=iIulBulltgU6a56xZRHN4H3l9WmuAYTsLGpBGhQ2"
    },
    "id": "3797675",
    "neo_reference_id": "3797675",
    "name": "(2018 AA12)",
    "designation": "2018 AA12",
    "nasa_jpl_url": "http://ssd.jpl.nasa.gov/sbdb.cgi?sstr=3797675",
    "absolute_magnitude_h": 24.8,
    "estimated_diameter": {
        "kilometers": {
            "estimated_diameter_min": 0.0291443905,
            "estimated_diameter_max": 0.0651688382
        },
        "meters": {
            "estimated_diameter_min": 29.1443904535,
            "estimated_diameter_max": 65.1688382168
        },
        "miles": {
            "estimated_diameter_min": 0.018109479,
            "estimated_diameter_max": 0.0404940262
        },
        "feet": {
            "estimated_diameter_min": 95.6180819754,
            "estimated_diameter_max": 213.8085311752
        }
    },
    "is_potentially_hazardous_asteroid": false,
    "close_approach_data": [
        {
            "close_approach_date": "1929-04-09",
            "close_approach_date_full": "1929-Apr-09 13:22",
            "epoch_date_close_approach": -1285324680000,
            "relative_velocity": {
                "kilometers_per_second": "12.2875663613",
                "kilometers_per_hour": "44235.2389006674",
                "miles_per_hour": "27486.0571935841"
            },
            "miss_distance": {
                "astronomical": "0.2458084476",
                "lunar": "95.6194861164",
                "kilometers": "36772420.188966612",
                "miles": "22849322.3682667656"
            },
            "orbiting_body": "Earth"
        },
        {
            "close_approach_date": "1930-12-23",
            "close_approach_date_full": "1930-Dec-23 14:32",
            "epoch_date_close_approach": -1231493280000,
            "relative_velocity": {
                "kilometers_per_second": "15.9737213941",
                "kilometers_per_hour": "57505.3970188414",
                "miles_per_hour": "35731.6173865128"
            },
            "miss_distance": {
                "astronomical": "0.3099797181",
                "lunar": "120.5821103409",
                "kilometers": "46372305.570960447",
                "miles": "28814414.5396382886"
            },
            "orbiting_body": "Earth"
        },
        {
            "close_approach_date": "2018-01-15",
            "close_approach_date_full": "2018-Jan-15 07:24",
            "epoch_date_close_approach": 1516001040000,
            "relative_velocity": {
                "kilometers_per_second": "7.5796743374",
                "kilometers_per_hour": "27286.8276145489",
                "miles_per_hour": "16954.9735252735"
            },
            "miss_distance": {
                "astronomical": "0.0423964739",
                "lunar": "16.4922283471",
                "kilometers": "6342422.190950593",
                "miles": "3940998.4029324634"
            },
            "orbiting_body": "Earth"
        }
    ],
    "orbital_data": {
        "orbit_id": "4",
        "orbit_determination_date": "2018-01-22 06:52:46",
        "first_observation_date": "2018-01-14",
        "last_observation_date": "2018-01-22",
        "data_arc_in_days": 8,
        "observations_used": 36,
        "orbit_uncertainty": "7",
        "minimum_orbit_intersection": ".0416978",
        "jupiter_tisserand_invariant": "4.404",
        "epoch_osculation": "2459000.5",
        "eccentricity": ".3654132648490298",
        "semi_major_axis": "1.529126872381271",
        "inclination": "7.284288255352074",
        "ascending_node_longitude": "101.2110826689162",
        "orbital_period": "690.6590511582796",
        "perihelion_distance": ".9703636295760453",
        "perihelion_argument": "46.20977136329386",
        "aphelion_distance": "2.087890115186497",
        "perihelion_time": "2458851.690802732205",
        "mean_anomaly": "77.56549476411492",
        "mean_motion": ".521241268606061",
        "equinox": "J2000",
        "orbit_class": {
            "orbit_class_type": "APO",
            "orbit_class_description": "Near-Earth asteroid orbits which cross the Earth’s orbit similar to that of 1862 Apollo",
            "orbit_class_range": "a (semi-major axis) > 1.0 AU; q (perihelion) < 1.017 AU"
        }
    },
    "is_sentry_object": false
}